start=new Date('2021-11-12T00:00:00.000Z').valueOf();
sats=[{"CENTER_NAME":"EARTH","MEAN_MOTION_DOT":"0.00000545","SITE":"AFETR","RA_OF_ASC_NODE":"264.0712","ARG_OF_PERICENTER":"73.1000","MEAN_MOTION_DDOT":"0.0000000000000","MEAN_MOTION":"15.06412090","REF_FRAME":"TEME","DECAY_DATE":null,"OBJECT_NAME":"STARLINK-1617","ECCENTRICITY":"0.00018910","PERIOD":"95.591","ELEMENT_SET_NO":"999","SEMIMAJOR_AXIS":"6925.312","APOAPSIS":"548.486","REV_AT_EPOCH":"6635","RCS_SIZE":"LARGE","EPOCH":"2021-11-11T21:36:10.990080","INCLINATION":"53.0528","TIME_SYSTEM":"UTC","PERIAPSIS":"545.867","TLE_LINE2":"2 46350  53.0528 264.0712 0001891  73.1000 287.0197 15.06412090 66357","MEAN_ELEMENT_THEORY":"SGP4","BSTAR":"0.00005551000000","COUNTRY_CODE":"US","TLE_LINE1":"1 46350U 20062AB  21315.90012720  .00000545  00000-0  55510-4 0  9995","GP_ID":"189527469","OBJECT_TYPE":"PAYLOAD","CLASSIFICATION_TYPE":"U","NORAD_CAT_ID":"46350","MEAN_ANOMALY":"287.0197","FILE":"3212485","EPHEMERIS_TYPE":"0","OBJECT_ID":"2020-062AB","LAUNCH_DATE":"2020-09-03"},{"TLE_LINE1":"1 46351U 20062AC  21315.77295204  .00001783  00000-0  13859-3 0  9995","GP_ID":"189527720","OBJECT_TYPE":"PAYLOAD","MEAN_ELEMENT_THEORY":"SGP4","BSTAR":"0.00013859000000","PERIAPSIS":"546.203","TLE_LINE2":"2 46351  53.0540 244.6515 0001479  66.9196 293.1948 15.06395468 66615","COUNTRY_CODE":"US","LAUNCH_DATE":"2020-09-03","NORAD_CAT_ID":"46351","MEAN_ANOMALY":"293.1948","FILE":"3212485","CLASSIFICATION_TYPE":"U","OBJECT_ID":"2020-062AC","EPHEMERIS_TYPE":"0","ARG_OF_PERICENTER":"66.9196","MEAN_MOTION_DDOT":"0.0000000000000","REF_FRAME":"TEME","MEAN_MOTION":"15.06395468","RA_OF_ASC_NODE":"244.6515","SITE":"AFETR","OBJECT_NAME":"STARLINK-1646","DECAY_DATE":null,"ECCENTRICITY":"0.00014790","MEAN_MOTION_DOT":"0.00001783","CENTER_NAME":"EARTH","RCS_SIZE":"LARGE","EPOCH":"2021-11-11T18:33:03.056256","INCLINATION":"53.0540","TIME_SYSTEM":"UTC","PERIOD":"95.592","ELEMENT_SET_NO":"999","SEMIMAJOR_AXIS":"6925.362","REV_AT_EPOCH":"6661","APOAPSIS":"548.252"},{"OBJECT_TYPE":"PAYLOAD","TLE_LINE1":"1 46352U 20062AD  21315.95356880  .00001413  00000-0  11372-3 0  9992","GP_ID":"189526468","COUNTRY_CODE":"US","PERIAPSIS":"545.874","TLE_LINE2":"2 46352  53.0531 243.8353 0001899  66.7909 293.3280 15.06407824 66647","BSTAR":"0.00011372000000","MEAN_ELEMENT_THEORY":"SGP4","LAUNCH_DATE":"2020-09-03","EPHEMERIS_TYPE":"0","OBJECT_ID":"2020-062AD","CLASSIFICATION_TYPE":"U","NORAD_CAT_ID":"46352","MEAN_ANOMALY":"293.3280","FILE":"3212485","DECAY_DATE":null,"OBJECT_NAME":"STARLINK-1653","ECCENTRICITY":"0.00018990","RA_OF_ASC_NODE":"243.8353","SITE":"AFETR","MEAN_MOTION_DDOT":"0.0000000000000","ARG_OF_PERICENTER":"66.7909","MEAN_MOTION":"15.06407824","REF_FRAME":"TEME","CENTER_NAME":"EARTH","MEAN_MOTION_DOT":"0.00001413","INCLINATION":"53.0531","TIME_SYSTEM":"UTC","RCS_SIZE":"LARGE","EPOCH":"2021-11-11T22:53:08.344320","SEMIMAJOR_AXIS":"6925.325","ELEMENT_SET_NO":"999","REV_AT_EPOCH":"6664","APOAPSIS":"548.505","PERIOD":"95.592"},{"EPHEMERIS_TYPE":"0","OBJECT_ID":"2020-062AE","CLASSIFICATION_TYPE":"U","FILE":"3212088","NORAD_CAT_ID":"46353","MEAN_ANOMALY":"285.6900","LAUNCH_DATE":"2020-09-03","COUNTRY_CODE":"US","TLE_LINE2":"2 46353  53.0540 266.8300 0001549  74.4260 285.6900 15.06400999 66259","PERIAPSIS":"546.138","MEAN_ELEMENT_THEORY":"SGP4","BSTAR":"0.00008577000000","OBJECT_TYPE":"PAYLOAD","GP_ID":"189493183","TLE_LINE1":"1 46353U 20062AE  21315.28825377  .00000996  00000-0  85770-4 0  9990","REV_AT_EPOCH":"6625","APOAPSIS":"548.283","ELEMENT_SET_NO":"999","SEMIMAJOR_AXIS":"6925.345","PERIOD":"95.592","INCLINATION":"53.0540","TIME_SYSTEM":"UTC","EPOCH":"2021-11-11T06:55:05.125728","RCS_SIZE":"LARGE","CENTER_NAME":"EARTH","MEAN_MOTION_DOT":"0.00000996","DECAY_DATE":null,"OBJECT_NAME":"STARLINK-1656","ECCENTRICITY":"0.00015490","SITE":"AFETR","RA_OF_ASC_NODE":"266.8300","REF_FRAME":"TEME","MEAN_MOTION":"15.06400999","MEAN_MOTION_DDOT":"0.0000000000000","ARG_OF_PERICENTER":"74.4260"},{"COUNTRY_CODE":"US","MEAN_ELEMENT_THEORY":"SGP4","BSTAR":"0.00004324100000","TLE_LINE2":"2 46354  53.0535 266.5736 0001515  75.7929 284.3228 15.06409717 66260","PERIAPSIS":"546.135","OBJECT_TYPE":"PAYLOAD","GP_ID":"189493433","TLE_LINE1":"1 46354U 20062AF  21315.34355177  .00000363  00000-0  43241-4 0  9999","OBJECT_ID":"2020-062AF","EPHEMERIS_TYPE":"0","FILE":"3212088","NORAD_CAT_ID":"46354","MEAN_ANOMALY":"284.3228","CLASSIFICATION_TYPE":"U","LAUNCH_DATE":"2020-09-03","MEAN_MOTION_DOT":"0.00000363","CENTER_NAME":"EARTH","DECAY_DATE":null,"ECCENTRICITY":"0.00015150","OBJECT_NAME":"STARLINK-1657","REF_FRAME":"TEME","MEAN_MOTION":"15.06409717","MEAN_MOTION_DDOT":"0.0000000000000","ARG_OF_PERICENTER":"75.7929","SITE":"AFETR","RA_OF_ASC_NODE":"266.5736","REV_AT_EPOCH":"6626","APOAPSIS":"548.233","SEMIMAJOR_AXIS":"6925.319","ELEMENT_SET_NO":"999","PERIOD":"95.592","INCLINATION":"53.0535","TIME_SYSTEM":"UTC","EPOCH":"2021-11-11T08:14:42.872928","RCS_SIZE":"LARGE"},{"MEAN_MOTION_DOT":"-0.00000125","CENTER_NAME":"EARTH","REF_FRAME":"TEME","MEAN_MOTION":"15.06402201","MEAN_MOTION_DDOT":"0.0000000000000","ARG_OF_PERICENTER":"67.1373","RA_OF_ASC_NODE":"265.5024","SITE":"AFETR","ECCENTRICITY":"0.00018050","DECAY_DATE":null,"OBJECT_NAME":"STARLINK-1661","PERIOD":"95.592","REV_AT_EPOCH":"6630","APOAPSIS":"548.457","ELEMENT_SET_NO":"999","SEMIMAJOR_AXIS":"6925.342","EPOCH":"2021-11-11T13:59:41.976672","RCS_SIZE":"LARGE","TIME_SYSTEM":"UTC","INCLINATION":"53.0544","MEAN_ELEMENT_THEORY":"SGP4","BSTAR":"0.00001054600000","TLE_LINE2":"2 46355  53.0544 265.5024 0001805  67.1373 292.9806 15.06402201 66303","PERIAPSIS":"545.957","COUNTRY_CODE":"US","GP_ID":"189494185","TLE_LINE1":"1 46355U 20062AG  21315.58312473 -.00000125  00000-0  10546-4 0  9997","OBJECT_TYPE":"PAYLOAD","FILE":"3212088","MEAN_ANOMALY":"292.9806","NORAD_CAT_ID":"46355","CLASSIFICATION_TYPE":"U","OBJECT_ID":"2020-062AG","EPHEMERIS_TYPE":"0","LAUNCH_DATE":"2020-09-03"},{"OBJECT_TYPE":"PAYLOAD","GP_ID":"189494935","TLE_LINE1":"1 46356U 20062AH  21315.59418186  .00000232  00000-0  34501-4 0  9992","COUNTRY_CODE":"US","TLE_LINE2":"2 46356  53.0524 265.4638 0001629  69.2792 290.8372 15.06402317 66307","PERIAPSIS":"546.078","BSTAR":"0.00003450100000","MEAN_ELEMENT_THEORY":"SGP4","LAUNCH_DATE":"2020-09-03","EPHEMERIS_TYPE":"0","OBJECT_ID":"2020-062AH","CLASSIFICATION_TYPE":"U","FILE":"3212088","NORAD_CAT_ID":"46356","MEAN_ANOMALY":"290.8372","DECAY_DATE":null,"ECCENTRICITY":"0.00016290","OBJECT_NAME":"STARLINK-1665","SITE":"AFETR","RA_OF_ASC_NODE":"265.4638","REF_FRAME":"TEME","MEAN_MOTION":"15.06402317","MEAN_MOTION_DDOT":"0.0000000000000","ARG_OF_PERICENTER":"69.2792","CENTER_NAME":"EARTH","MEAN_MOTION_DOT":"0.00000232","TIME_SYSTEM":"UTC","INCLINATION":"53.0524","EPOCH":"2021-11-11T14:15:37.312704","RCS_SIZE":"LARGE","APOAPSIS":"548.335","REV_AT_EPOCH":"6630","SEMIMAJOR_AXIS":"6925.341","ELEMENT_SET_NO":"999","PERIOD":"95.592"},{"COUNTRY_CODE":"US","TLE_LINE2":"2 46357  53.0539 243.9835 0001493  69.7766 290.3383 15.06397599 66637","PERIAPSIS":"546.187","BSTAR":"0.00000231500000","MEAN_ELEMENT_THEORY":"SGP4","OBJECT_TYPE":"PAYLOAD","GP_ID":"189526221","TLE_LINE1":"1 46357U 20062AJ  21315.92407516 -.00000247  00000-0  23150-5 0  9991","EPHEMERIS_TYPE":"0","OBJECT_ID":"2020-062AJ","CLASSIFICATION_TYPE":"U","FILE":"3212485","NORAD_CAT_ID":"46357","MEAN_ANOMALY":"290.3383","LAUNCH_DATE":"2020-09-03","CENTER_NAME":"EARTH","MEAN_MOTION_DOT":"-0.00000247","OBJECT_NAME":"STARLINK-1666","DECAY_DATE":null,"ECCENTRICITY":"0.00014930","SITE":"AFETR","RA_OF_ASC_NODE":"243.9835","REF_FRAME":"TEME","MEAN_MOTION":"15.06397599","MEAN_MOTION_DDOT":"0.0000000000000","ARG_OF_PERICENTER":"69.7766","APOAPSIS":"548.255","REV_AT_EPOCH":"6663","ELEMENT_SET_NO":"999","SEMIMAJOR_AXIS":"6925.356","PERIOD":"95.592","INCLINATION":"53.0539","TIME_SYSTEM":"UTC","EPOCH":"2021-11-11T22:10:40.093824","RCS_SIZE":"LARGE"},{"DECAY_DATE":null,"OBJECT_NAME":"STARLINK-1690","ECCENTRICITY":"0.00016070","RA_OF_ASC_NODE":"265.5529","SITE":"AFETR","MEAN_MOTION":"15.06399683","REF_FRAME":"TEME","MEAN_MOTION_DDOT":"0.0000000000000","ARG_OF_PERICENTER":"65.1884","CENTER_NAME":"EARTH","MEAN_MOTION_DOT":"-0.00004233","INCLINATION":"53.0528","TIME_SYSTEM":"UTC","EPOCH":"2021-11-11T13:43:46.895520","RCS_SIZE":"LARGE","APOAPSIS":"548.327","REV_AT_EPOCH":"6648","ELEMENT_SET_NO":"999","SEMIMAJOR_AXIS":"6925.350","PERIOD":"95.592","OBJECT_TYPE":"PAYLOAD","GP_ID":"189496539","TLE_LINE1":"1 46358U 20062AK  21315.57207055 -.00004233  00000-0 -26542-3 0  9995","COUNTRY_CODE":"US","TLE_LINE2":"2 46358  53.0528 265.5529 0001607  65.1884 294.9272 15.06399683 66480","PERIAPSIS":"546.102","BSTAR":"-0.00026542000000","MEAN_ELEMENT_THEORY":"SGP4","LAUNCH_DATE":"2020-09-03","EPHEMERIS_TYPE":"0","OBJECT_ID":"2020-062AK","CLASSIFICATION_TYPE":"U","FILE":"3212112","NORAD_CAT_ID":"46358","MEAN_ANOMALY":"294.9272"},{"PERIOD":"95.592","SEMIMAJOR_AXIS":"6925.321","ELEMENT_SET_NO":"999","APOAPSIS":"548.331","REV_AT_EPOCH":"6698","RCS_SIZE":"LARGE","EPOCH":"2021-11-11T22:48:30.266784","INCLINATION":"53.0534","TIME_SYSTEM":"UTC","CENTER_NAME":"EARTH","MEAN_MOTION_DOT":"0.00005059","SITE":"AFETR","RA_OF_ASC_NODE":"218.8598","MEAN_MOTION_DDOT":"0.0000000000000","ARG_OF_PERICENTER":"68.3178","MEAN_MOTION":"15.06409114","REF_FRAME":"TEME","DECAY_DATE":null,"OBJECT_NAME":"STARLINK-1707","ECCENTRICITY":"0.00016540","CLASSIFICATION_TYPE":"U","NORAD_CAT_ID":"46359","MEAN_ANOMALY":"291.7987","FILE":"3212485","EPHEMERIS_TYPE":"0","OBJECT_ID":"2020-062AL","LAUNCH_DATE":"2020-09-03","PERIAPSIS":"546.040","TLE_LINE2":"2 46359  53.0534 218.8598 0001654  68.3178 291.7987 15.06409114 66982","MEAN_ELEMENT_THEORY":"SGP4","BSTAR":"0.00035819000000","COUNTRY_CODE":"US","TLE_LINE1":"1 46359U 20062AL  21315.95035031  .00005059  00000-0  35819-3 0  9993","GP_ID":"189527721","OBJECT_TYPE":"PAYLOAD"}];
